[
    {
        "Altitude(m)": 624790.7755598536,
        "Argument of Periapsis(deg)": 0.0,
        "Eccentricity": 0.0,
        "Inclination(deg)": 60.0,
        "Latitude(deg)": -59.14705646704049,
        "Longitude(deg)": 61.03472107425335,
        "Mean Anomaly(deg)": -81.81820000000006,
        "RAAN(deg)": 235.0,
        "Satellite Name": "Test1 1051",
        "Satellite Number": 1051,
        "Semi-Major Axis(m)": 6980739.136638005,
        "Time(s)": 0
    },
    {
        "Altitude(m)": 624737.4301316887,
        "Argument of Periapsis(deg)": 0.00010418945913296404,
        "Eccentricity": 0.0,
        "Inclination(deg)": 60.0,
        "Latitude(deg)": -58.9945102726711,
        "Longitude(deg)": 62.15422047893987,
        "Mean Anomaly(deg)": -81.1980938545382,
        "RAAN(deg)": 234.99957995086027,
        "Satellite Name": "Test1 1051",
        "Satellite Number": 1051,
        "Semi-Major Axis(m)": 6980739.136638005,
        "Time(s)": 10
    },
    {
        "Altitude(m)": 624680.3011176357,
        "Argument of Periapsis(deg)": 0.0002083789182659281,
        "Eccentricity": 0.0,
        "Inclination(deg)": 60.0,
        "Latitude(deg)": -58.83165251760326,
        "Longitude(deg)": 63.26316746591062,
        "Mean Anomaly(deg)": -80.57798770907635,
        "RAAN(deg)": 234.99915990172047,
        "Satellite Name": "Test1 1051",
        "Satellite Number": 1051,
        "Semi-Major Axis(m)": 6980739.136638005,
        "Time(s)": 20
    },
    {
        "Altitude(m)": 624619.4109833118,
        "Argument of Periapsis(deg)": 0.00031256837739889213,
        "Eccentricity": 0.0,
        "Inclination(deg)": 60.0,
        "Latitude(deg)": -58.65864383886015,
        "Longitude(deg)": 64.36105396731242,
        "Mean Anomaly(deg)": -79.95788156361455,
        "RAAN(deg)": 234.9987398525808,
        "Satellite Name": "Test1 1051",
        "Satellite Number": 1051,
        "Semi-Major Axis(m)": 6980739.136638005,
        "Time(s)": 30
    },
    {
        "Altitude(m)": 624554.783671405,
        "Argument of Periapsis(deg)": 0.0004167578365318562,
        "Eccentricity": 0.0,
        "Inclination(deg)": 60.0,
        "Latitude(deg)": -58.475651257846025,
        "Longitude(deg)": 65.4474120182354,
        "Mean Anomaly(deg)": -79.3377754181527,
        "RAAN(deg)": 234.99831980344103,
        "Satellite Name": "Test1 1051",
        "Satellite Number": 1051,
        "Semi-Major Axis(m)": 6980739.136638005,
        "Time(s)": 40
    },
    {
        "Altitude(m)": 624486.4445915836,
        "Argument of Periapsis(deg)": 0.0005209472956648203,
        "Eccentricity": 0.0,
        "Inclination(deg)": 60.0,
        "Latitude(deg)": -58.282847477771135,
        "Longitude(deg)": 66.52181299395556,
        "Mean Anomaly(deg)": -78.71766927269084,
        "RAAN(deg)": 234.99789975430124,
        "Satellite Name": "Test1 1051",
        "Satellite Number": 1051,
        "Semi-Major Axis(m)": 6980739.136638005,
        "Time(s)": 50
    },
    {
        "Altitude(m)": 624414.4206097692,
        "Argument of Periapsis(deg)": 0.0006251367547977843,
        "Eccentricity": 0.0,
        "Inclination(deg)": 60.0,
        "Latitude(deg)": -58.080410187037174,
        "Longitude(deg)": 67.58386807558773,
        "Mean Anomaly(deg)": -78.09756312722898,
        "RAAN(deg)": 234.9974797051615,
        "Satellite Name": "Test1 1051",
        "Satellite Number": 1051,
        "Semi-Major Axis(m)": 6980739.136638005,
        "Time(s)": 60
    },
    {
        "Altitude(m)": 624338.7400368028,
        "Argument of Periapsis(deg)": 0.0007293262139307483,
        "Eccentricity": 0.0,
        "Inclination(deg)": 60.0,
        "Latitude(deg)": -57.86852137385371,
        "Longitude(deg)": 68.63322845080685,
        "Mean Anomaly(deg)": -77.47745698176719,
        "RAAN(deg)": 234.99705965602183,
        "Satellite Name": "Test1 1051",
        "Satellite Number": 1051,
        "Semi-Major Axis(m)": 6980739.136638005,
        "Time(s)": 70
    },
    {
        "Altitude(m)": 624259.4326164995,
        "Argument of Periapsis(deg)": 0.0008335156730637124,
        "Eccentricity": 0.0,
        "Inclination(deg)": 60.0,
        "Latitude(deg)": -57.64736665683442,
        "Longitude(deg)": 69.66958375842877,
        "Mean Anomaly(deg)": -76.85735083630533,
        "RAAN(deg)": 234.99663960688204,
        "Satellite Name": "Test1 1051",
        "Satellite Number": 1051,
        "Semi-Major Axis(m)": 6980739.136638005,
        "Time(s)": 80
    },
    {
        "Altitude(m)": 624176.5295130722,
        "Argument of Periapsis(deg)": 0.0009377051321966765,
        "Eccentricity": 0.0,
        "Inclination(deg)": 60.0,
        "Latitude(deg)": -57.4171346357657,
        "Longitude(deg)": 70.6926618257822,
        "Mean Anomaly(deg)": -76.23724469084348,
        "RAAN(deg)": 234.99621955774228,
        "Satellite Name": "Test1 1051",
        "Satellite Number": 1051,
        "Semi-Major Axis(m)": 6980739.136638005,
        "Time(s)": 90
    },
    {
        "Altitude(m)": 624090.0632979838,
        "Argument of Periapsis(deg)": 0.0010418945913296407,
        "Eccentricity": 0.0,
        "Inclination(deg)": 60.0,
        "Latitude(deg)": -57.17801626617924,
        "Longitude(deg)": 71.70222821017099,
        "Mean Anomaly(deg)": -75.61713854538162,
        "RAAN(deg)": 234.99579950860254,
        "Satellite Name": "Test1 1051",
        "Satellite Number": 1051,
        "Semi-Major Axis(m)": 6980739.136638005,
        "Time(s)": 100
    },
    {
        "Altitude(m)": 624000.0679361647,
        "Argument of Periapsis(deg)": 0.0011460840504626045,
        "Eccentricity": 0.0,
        "Inclination(deg)": 60.0,
        "Latitude(deg)": -56.93020426079021,
        "Longitude(deg)": 72.69808405616357,
        "Mean Anomaly(deg)": -74.99703239991983,
        "RAAN(deg)": 234.9953794594628,
        "Satellite Name": "Test1 1051",
        "Satellite Number": 1051,
        "Semi-Major Axis(m)": 6980739.136638005,
        "Time(s)": 110
    },
    {
        "Altitude(m)": 623906.5787716493,
        "Argument of Periapsis(deg)": 0.0012502735095955685,
        "Eccentricity": 0.0,
        "Inclination(deg)": 60.0,
        "Latitude(deg)": -56.673892520301074,
        "Longitude(deg)": 73.6800653190273,
        "Mean Anomaly(deg)": -74.37692625445797,
        "RAAN(deg)": 234.99495941032308,
        "Satellite Name": "Test1 1051",
        "Satellite Number": 1051,
        "Semi-Major Axis(m)": 6980739.136638005,
        "Time(s)": 120
    },
    {
        "Altitude(m)": 623809.6325126297,
        "Argument of Periapsis(deg)": 0.0013544629687285324,
        "Eccentricity": 0.0,
        "Inclination(deg)": 60.0,
        "Latitude(deg)": -56.40927559553334,
        "Longitude(deg)": 74.64804186556111,
        "Mean Anomaly(deg)": -73.75682010899622,
        "RAAN(deg)": 234.9945393611833,
        "Satellite Name": "Test1 1051",
        "Satellite Number": 1051,
        "Semi-Major Axis(m)": 6980739.136638005,
        "Time(s)": 130
    },
    {
        "Altitude(m)": 623709.26721591,
        "Argument of Periapsis(deg)": 0.0014586524278614966,
        "Eccentricity": 0.0,
        "Inclination(deg)": 60.0,
        "Latitude(deg)": -56.13654818233707,
        "Longitude(deg)": 75.60191496277075,
        "Mean Anomaly(deg)": -73.13671396353436,
        "RAAN(deg)": 234.99411931204358,
        "Satellite Name": "Test1 1051",
        "Satellite Number": 1051,
        "Semi-Major Axis(m)": 6980739.136638005,
        "Time(s)": 140
    },
    {
        "Altitude(m)": 623605.5222707818,
        "Argument of Periapsis(deg)": 0.0015628418869944607,
        "Eccentricity": 0.0,
        "Inclination(deg)": 60.0,
        "Latitude(deg)": -55.85590465024541,
        "Longitude(deg)": 76.54161620232625,
        "Mean Anomaly(deg)": -72.51660781807257,
        "RAAN(deg)": 234.99369926290385,
        "Satellite Name": "Test1 1051",
        "Satellite Number": 1051,
        "Semi-Major Axis(m)": 6980739.136638005,
        "Time(s)": 150
    },
    {
        "Altitude(m)": 623498.4383823413,
        "Argument of Periapsis(deg)": 0.0016670313461274247,
        "Eccentricity": 0.0,
        "Inclination(deg)": 60.0,
        "Latitude(deg)": -55.56753860540339,
        "Longitude(deg)": 77.46710636879394,
        "Mean Anomaly(deg)": -71.89650167261071,
        "RAAN(deg)": 234.9932792137641,
        "Satellite Name": "Test1 1051",
        "Satellite Number": 1051,
        "Semi-Major Axis(m)": 6980739.136638005,
        "Time(s)": 160
    },
    {
        "Altitude(m)": 623388.0575542205,
        "Argument of Periapsis(deg)": 0.0017712208052603888,
        "Eccentricity": 0.0,
        "Inclination(deg)": 60.0,
        "Latitude(deg)": -55.27164248790196,
        "Longitude(deg)": 78.37837275810575,
        "Mean Anomaly(deg)": -71.27639552714896,
        "RAAN(deg)": 234.99285916462435,
        "Satellite Name": "Test1 1051",
        "Satellite Number": 1051,
        "Semi-Major Axis(m)": 6980739.136638005,
        "Time(s)": 170
    },
    {
        "Altitude(m)": 623274.4230707699,
        "Argument of Periapsis(deg)": 0.001875410264393353,
        "Eccentricity": 0.0,
        "Inclination(deg)": 60.0,
        "Latitude(deg)": -54.96840720328873,
        "Longitude(deg)": 79.2754279896999,
        "Mean Anomaly(deg)": -70.65628938168712,
        "RAAN(deg)": 234.99243911548461,
        "Satellite Name": "Test1 1051",
        "Satellite Number": 1051,
        "Semi-Major Axis(m)": 6980739.136638005,
        "Time(s)": 180
    },
    {
        "Altitude(m)": 623157.5794786725,
        "Argument of Periapsis(deg)": 0.0019795997235263173,
        "Eccentricity": 0.0,
        "Inclination(deg)": 60.0,
        "Latitude(deg)": -54.6580217877205,
        "Longitude(deg)": 80.1583088154328,
        "Mean Anomaly(deg)": -70.03618323622531,
        "RAAN(deg)": 234.99201906634488,
        "Satellite Name": "Test1 1051",
        "Satellite Number": 1051,
        "Semi-Major Axis(m)": 6980739.136638005,
        "Time(s)": 190
    }
]